1 29155U 06018A   12027.16208938 -.00000256  00000-0  10000-3 0  9231
2 29155 000.3917 080.8980 0001838 319.6737 069.0659 01.00271032 20826